{
  "type": "FeatureCollection",
  "features": [
    {
      "type": "Feature",
      "properties": {
        "norad_id": 34924,
        "name": "COSMOS 2251 DEB",
        "group": "cosmos-2251-debris",
        "lat": 68.08735583051168,
        "lon": 120.03026474254924,
        "alt_km": 680.784940738341,
        "timestamp": "2025-12-20T11:30:28.771564+00:00",
        "meta_object_name": "COSMOS 2251 DEB",
        "meta_object_id": "1993-036ADV",
        "meta_epoch": "2025-12-19T22:32:54.153024",
        "meta_mean_motion": 14.60090813,
        "meta_eccentricity": 0.0053774,
        "meta_inclination": 74.041,
        "meta_ra_of_asc_node": 75.7118,
        "meta_arg_of_pericenter": 158.5725,
        "meta_mean_anomaly": 319.6928,
        "meta_ephemeris_type": 0,
        "meta_classification_type": "U",
        "meta_norad_cat_id": 34924,
        "meta_element_set_no": 999,
        "meta_rev_at_epoch": 87828,
        "meta_bstar": 0.00056181,
        "meta_mean_motion_dot": 2.727e-05,
        "meta_mean_motion_ddot": 0,
        "tle_line1": "1 34924U 93036ADV 25353.93951566  .00002727  00000+0  56181-3 0  9996",
        "tle_line2": "2 34924  74.0410  75.7118 0053774 158.5725 319.6928 14.60090813878281"
      },
      "geometry": {
        "type": "Point",
        "coordinates": [
          120.03026474254924,
          68.08735583051168
        ]
      }
    },
    {
      "type": "Feature",
      "properties": {
        "norad_id": 34944,
        "name": "COSMOS 2251 DEB",
        "group": "cosmos-2251-debris",
        "lat": -17.670293166851835,
        "lon": -147.25339304793977,
        "alt_km": 825.5866510722826,
        "timestamp": "2025-12-20T11:30:28.771575+00:00",
        "meta_object_name": "COSMOS 2251 DEB",
        "meta_object_id": "1993-036ADX",
        "meta_epoch": "2025-12-17T02:06:11.847168",
        "meta_mean_motion": 14.14195665,
        "meta_eccentricity": 0.02198727,
        "meta_inclination": 73.7495,
        "meta_ra_of_asc_node": 224.195,
        "meta_arg_of_pericenter": 70.8954,
        "meta_mean_anomaly": 291.5851,
        "meta_ephemeris_type": 0,
        "meta_classification_type": "U",
        "meta_norad_cat_id": 34944,
        "meta_element_set_no": 999,
        "meta_rev_at_epoch": 64144,
        "meta_bstar": 0.00030334686,
        "meta_mean_motion_dot": 7.03e-06,
        "meta_mean_motion_ddot": 0,
        "tle_line1": "1 34944U 93036ADX 25351.08763712  .00000703  00000+0  30335-3 0  9991",
        "tle_line2": "2 34944  73.7495 224.1950 0219872  70.8954 291.5851 14.14195665641448"
      },
      "geometry": {
        "type": "Point",
        "coordinates": [
          -147.25339304793977,
          -17.670293166851835
        ]
      }
    },
    {
      "type": "Feature",
      "properties": {
        "norad_id": 34946,
        "name": "COSMOS 2251 DEB",
        "group": "cosmos-2251-debris",
        "lat": -25.18970175695685,
        "lon": -40.4615726367166,
        "alt_km": 713.0910394006887,
        "timestamp": "2025-12-20T11:30:28.771585+00:00",
        "meta_object_name": "COSMOS 2251 DEB",
        "meta_object_id": "1993-036ADZ",
        "meta_epoch": "2025-12-19T07:42:37.791072",
        "meta_mean_motion": 14.6202881,
        "meta_eccentricity": 0.0048641,
        "meta_inclination": 74.0227,
        "meta_ra_of_asc_node": 329.5012,
        "meta_arg_of_pericenter": 104.6695,
        "meta_mean_anomaly": 255.9871,
        "meta_ephemeris_type": 0,
        "meta_classification_type": "U",
        "meta_norad_cat_id": 34946,
        "meta_element_set_no": 999,
        "meta_rev_at_epoch": 88305,
        "meta_bstar": 0.00040056,
        "meta_mean_motion_dot": 2.013e-05,
        "meta_mean_motion_ddot": 0,
        "tle_line1": "1 34946U 93036ADZ 25353.32127073  .00002013  00000+0  40056-3 0  9993",
        "tle_line2": "2 34946  74.0227 329.5012 0048641 104.6695 255.9871 14.62028810883059"
      },
      "geometry": {
        "type": "Point",
        "coordinates": [
          -40.4615726367166,
          -25.18970175695685
        ]
      }
    },
    {
      "type": "Feature",
      "properties": {
        "norad_id": 34949,
        "name": "COSMOS 2251 DEB",
        "group": "cosmos-2251-debris",
        "lat": -24.89258485703858,
        "lon": -77.8206337935917,
        "alt_km": 605.6966486973606,
        "timestamp": "2025-12-20T11:30:28.771594+00:00",
        "meta_object_name": "COSMOS 2251 DEB",
        "meta_object_id": "1993-036AEC",
        "meta_epoch": "2025-12-19T23:10:09.715008",
        "meta_mean_motion": 14.74045348,
        "meta_eccentricity": 0.0080206,
        "meta_inclination": 74.0194,
        "meta_ra_of_asc_node": 95.5416,
        "meta_arg_of_pericenter": 239.3679,
        "meta_mean_anomaly": 119.957,
        "meta_ephemeris_type": 0,
        "meta_classification_type": "U",
        "meta_norad_cat_id": 34949,
        "meta_element_set_no": 999,
        "meta_rev_at_epoch": 88468,
        "meta_bstar": 0.00035104,
        "meta_mean_motion_dot": 2.396e-05,
        "meta_mean_motion_ddot": 0,
        "tle_line1": "1 34949U 93036AEC 25353.96539022  .00002396  00000+0  35104-3 0  9999",
        "tle_line2": "2 34949  74.0194  95.5416 0080206 239.3679 119.9570 14.74045348884687"
      },
      "geometry": {
        "type": "Point",
        "coordinates": [
          -77.8206337935917,
          -24.89258485703858
        ]
      }
    },
    {
      "type": "Feature",
      "properties": {
        "norad_id": 34953,
        "name": "COSMOS 2251 DEB",
        "group": "cosmos-2251-debris",
        "lat": 39.80913200474432,
        "lon": 26.308533660314904,
        "alt_km": 628.8965470760368,
        "timestamp": "2025-12-20T11:30:28.771604+00:00",
        "meta_object_name": "COSMOS 2251 DEB",
        "meta_object_id": "1993-036AEG",
        "meta_epoch": "2025-12-19T19:47:21.727392",
        "meta_mean_motion": 14.69013601,
        "meta_eccentricity": 0.00584711,
        "meta_inclination": 74.0926,
        "meta_ra_of_asc_node": 13.8215,
        "meta_arg_of_pericenter": 3.8075,
        "meta_mean_anomaly": 175.3967,
        "meta_ephemeris_type": 0,
        "meta_classification_type": "U",
        "meta_norad_cat_id": 34953,
        "meta_element_set_no": 999,
        "meta_rev_at_epoch": 88232,
        "meta_bstar": 0.00051664443,
        "meta_mean_motion_dot": 3.078e-05,
        "meta_mean_motion_ddot": 0,
        "tle_line1": "1 34953U 93036AEG 25353.82455703  .00003078  00000+0  51664-3 0  9999",
        "tle_line2": "2 34953  74.0926  13.8215 0058471   3.8075 175.3967 14.69013601882324"
      },
      "geometry": {
        "type": "Point",
        "coordinates": [
          26.308533660314904,
          39.80913200474432
        ]
      }
    },
    {
      "type": "Feature",
      "properties": {
        "norad_id": 34955,
        "name": "COSMOS 2251 DEB",
        "group": "cosmos-2251-debris",
        "lat": -23.572678927945706,
        "lon": -136.41578383302064,
        "alt_km": 526.6626609634268,
        "timestamp": "2025-12-20T11:30:28.771614+00:00",
        "meta_object_name": "COSMOS 2251 DEB",
        "meta_object_id": "1993-036AEJ",
        "meta_epoch": "2025-12-20T00:24:58.893120",
        "meta_mean_motion": 15.00658938,
        "meta_eccentricity": 0.0077912,
        "meta_inclination": 74.0366,
        "meta_ra_of_asc_node": 231.6989,
        "meta_arg_of_pericenter": 299.5962,
        "meta_mean_anomaly": 59.7477,
        "meta_ephemeris_type": 0,
        "meta_classification_type": "U",
        "meta_norad_cat_id": 34955,
        "meta_element_set_no": 999,
        "meta_rev_at_epoch": 90143,
        "meta_bstar": 0.00046777,
        "meta_mean_motion_dot": 6.274e-05,
        "meta_mean_motion_ddot": 0,
        "tle_line1": "1 34955U 93036AEJ 25354.01734830  .00006274  00000+0  46777-3 0  9994",
        "tle_line2": "2 34955  74.0366 231.6989 0077912 299.5962  59.7477 15.00658938901431"
      },
      "geometry": {
        "type": "Point",
        "coordinates": [
          -136.41578383302064,
          -23.572678927945706
        ]
      }
    },
    {
      "type": "Feature",
      "properties": {
        "norad_id": 34962,
        "name": "COSMOS 2251 DEB",
        "group": "cosmos-2251-debris",
        "lat": 56.178883815388886,
        "lon": -155.78574865716016,
        "alt_km": 739.6355048419537,
        "timestamp": "2025-12-20T11:30:28.771624+00:00",
        "meta_object_name": "COSMOS 2251 DEB",
        "meta_object_id": "1993-036AER",
        "meta_epoch": "2025-12-18T22:43:00.041664",
        "meta_mean_motion": 14.4653439,
        "meta_eccentricity": 0.00188463,
        "meta_inclination": 74.0286,
        "meta_ra_of_asc_node": 181.7701,
        "meta_arg_of_pericenter": 294.3203,
        "meta_mean_anomaly": 65.5987,
        "meta_ephemeris_type": 0,
        "meta_classification_type": "U",
        "meta_norad_cat_id": 34962,
        "meta_element_set_no": 999,
        "meta_rev_at_epoch": 87668,
        "meta_bstar": 0.00031666528,
        "meta_mean_motion_dot": 1.116e-05,
        "meta_mean_motion_ddot": 0,
        "tle_line1": "1 34962U 93036AER 25352.94652826  .00001116  00000+0  31667-3 0  9998",
        "tle_line2": "2 34962  74.0286 181.7701 0018846 294.3203  65.5987 14.46534390876682"
      },
      "geometry": {
        "type": "Point",
        "coordinates": [
          -155.78574865716016,
          56.178883815388886
        ]
      }
    }
  ]
}